ASTERIA                 
1 43020U 98067NH  18310.60078481  .00019074  00000-0  21394-3 0  9999
2 43020  51.6433  17.2725 0002764 358.8815   1.2173 15.62683511 54735
DELLINGR (RBLE)         
1 43021U 98067NJ  18311.19099226  .00008241  00000-0  10817-3 0  9997
2 43021  51.6409  18.1599 0002461 351.8673   8.2280 15.59490832 54775
OSIRIS-3U               
1 43027U 98067NL  18311.15959909  .00066063  00000-0  43304-3 0  9995
2 43027  51.6371   2.0985 0005059   1.3787 358.7225 15.75119156 54866
AEROCUBE 7B             
1 43042U 17071F   18311.14589031  .00004113  00000-0  11224-3 0  9996
2 43042  51.6391  64.6225 0005337  67.6059 292.5490 15.39745667 51624
AEROCUBE 7C             
1 43043U 17071G   18310.56161401  .00003687  00000-0  10165-3 0  9997
2 43043  51.6392  67.4791 0005436  67.0606 293.0952 15.39746225 51504
CHEFSAT                 
1 43044U 17071H   18310.52750616  .00008179  00000-0  20305-3 0  9994
2 43044  51.6400  65.8014 0005204  66.1977 293.9554 15.41236264 51528
ASGARDIA 1              
1 43049U 17071N   18310.53107142  .00004333  00000-0  11725-3 0  9994
2 43049  51.6398  67.2872 0002985  86.3748 273.7578 15.39859178 51490
ISARA                   
1 43050U 17071P   18310.87323849  .00006311  00000-0  16037-3 0  9996
2 43050  51.6391  64.3439 0002776  84.5235 275.6067 15.40959339 51565
FAUNA                   
1 43052U 17071R   18310.57000860  .00003575  00000-0  97922-4 0  9992
2 43052  51.6399  66.8098 0002903  83.8259 276.3056 15.40043704 51503
CORVUS BC3              
1 43118U 18004H   18310.70905270  .00000792  00000-0  37293-4 0  9999
2 43118  97.5173  13.4667 0009498 323.7174  36.3417 15.22479166 45393
MICROMAS-2A             
1 43131U 18004W   18310.86833085  .00002068  00000-0  90182-4 0  9999
2 43131  97.5190  13.9004 0008587 326.7329  33.3367 15.23302015 45435
GOMX4-B                 
1 43196U 18015E   18310.58531729  .00000430  00000-0  20735-4 0  9999
2 43196  97.3634  76.7637 0019898  19.5157 340.6837 15.23742162 42219
GOMX4-A                 
1 43197U 18015F   18311.06021628  .00000374  00000-0  18399-4 0  9996
2 43197  97.3643  77.2370 0020049  19.8865  92.0941 15.23814731 42293
1KUNS-PF                
1 43466U 98067NP  18310.45667529  .00017092  00000-0  22202-3 0  9990
2 43466  51.6412  25.9956 0000889 353.9238   6.1744 15.58920189 27861
UBAKUSAT                
1 43467U 98067NQ  18310.81907086  .00010617  00000-0  14546-3 0  9994
2 43467  51.6405  24.6681 0002600 316.1940  43.8846 15.57979307 27922
BATSU-CS1 (IRAZU)       
1 43468U 98067NR  18310.41768716  .00021348  00000-0  26801-3 0  9996
2 43468  51.6408  25.7353 0000862 352.0395   8.0584 15.59656911127855
CUBERRT                 
1 43546U 98067NU  18311.16465016  .00023153  00000-0  31995-3 0  9999
2 43546  51.6409  24.7160 0006327  11.5670 348.5466 15.57022737 18089
TEMPEST-D               
1 43547U 98067NV  18311.19996708  .00004779  00000-0  75093-4 0  9991
2 43547  51.6405  24.9486 0006173  13.8256 346.2903 15.55691078 17766
RAINCUBE                
1 43548U 98067NW  18311.05305971  .00011325  00000-0  16340-3 0  9997
2 43548  51.6406  25.4683 0006338  19.9511 340.1727 15.56483158 18191
HALOSAT                 
1 43549U 98067NX  18310.47580667  .00013642  00000-0  19553-3 0  9993
2 43549  51.6409  28.3635 0006249  20.0393 340.0843 15.56461172 17667
ENDUROSAT ONE           
1 43551U 98067NZ  18310.44671748  .00014458  00000-0  20256-3 0  9992
2 43551  51.6401  28.1679 0006847  24.7337 335.3982 15.57019878 18071
EQUISAT                 
1 43552U 98067PA  18310.51930690  .00011882  00000-0  16944-3 0  9992
2 43552  51.6407  27.9047 0007063  26.1079 334.0267 15.56742576 18040
AEROCUBE 12A            
1 43556U 18046C   18310.50239673  .00001981  00000-0  84286-4 0  9991
2 43556  51.6433  51.4589 0008247 352.4542   7.6312 15.27981576 17272
AEROCUBE 12B            
1 43557U 18046D   18310.83060914  .00001696  00000-0  74095-4 0  9998
2 43557  51.6432  49.8994 0008266 353.6918   6.3956 15.27939176 17273
UITMSAT-1               
1 43589U 98067PD  18310.49796195  .00014060  00000-0  20204-3 0  9994
2 43589  51.6406  28.5082 0006444  33.8055 326.3346 15.56360707 13775
MAYA-1                  
1 43590U 98067PE  18310.49638513  .00014042  00000-0  20159-3 0  9994
2 43590  51.6406  28.4980 0006534  34.5984 325.5431 15.56387144 13705
BHUTAN-1                
1 43591U 98067PF  18311.20046350  .00012585  00000-0  18101-3 0  9991
2 43591  51.6404  24.9508 0006665  38.2579 321.8884 15.56449509 13814
SIRIUSSAT-1             
1 43595U 98067PG  18310.51998559  .00012235  00000-0  17946-3 0  9993
2 43595  51.6405  28.6512 0003972 351.8270   8.2656 15.55955295 12887
SIRIUSSAT-2             
1 43596U 98067PH  18310.52753113  .00012039  00000-0  17766-3 0  9992
2 43596  51.6416  28.7100 0004636 353.9668   6.1267 15.55804298 12887
TANUSHA-3               
1 43597U 98067PJ  18310.84114551  .00013265  00000-0  19271-3 0  9990
2 43597  51.6394  27.0386 0004263   7.1303 352.9748 15.56130207 12936
SURFSAT                 
1 43614U 18070B   18310.56367315  .00002538  00000-0  71231-4 0  9999
2 43614  93.0300 271.0094 0019634  86.3780 273.9738 15.36440513  7988
CP-7 (DAVE)             
1 43615U 18070C   18310.56342534  .00002371  00000-0  66557-4 0  9996
2 43615  93.0293 271.0097 0019663  86.8941 273.4570 15.36441618  7985
ELFIN-B                 
1 43616U 18070D   18310.36538875 -.00000006  00000-0  00000+0 0  9990
2 43616  93.0281 270.9028 0021338  89.8294 270.5891 15.36549594  7954
ELFIN-A                 
1 43617U 18070E   18310.36437827 -.00000006  00000-0  00000+0 0  9996
2 43617  93.0327 270.9457 0020278  87.6764 272.7131 15.36586616  7959
DEBRISSAT-1             
1 43621U 98067PM  18310.54665834  .00062143  00000-0  73427-3 0  9992
2 43621  51.6502  27.3635 0010006   5.3310 354.7937 15.60651007  7895
CUBEBEL-1 (BSUSAT-1)    
1 43666U 18083E   18311.18757317  .00001049  00000-0  56313-4 0  9994
2 43666  97.5406 332.0187 0013791 242.1189 182.1256 15.17103024  1392
DEBRISSAT-2             
1 43680U 98067PR  18311.20818904  .00016909  00000-0  24841-3 0  9994
2 43680  51.6399  24.9943 0004629  25.5520 334.5740 15.55599958 21737
